[
  {
    "satid": 37820,
    "epoch": "2018-03-31T15:17:46.48",
    "elements": "1 37820U 11053A   18090.63734353  .01995214  91302-5  18234-3 0  99942 37820  42.7537 203.0502 0007804 350.3894   9.7592 16.37770827373815"
  }
]
